{
  "type": "FeatureCollection",
  "features": [
    {
      "type": "Feature",
      "id": "operation_boundary-33",
      "geometry": {
        "type": "Polygon",
        "coordinates": [
          [
            [
              -1.3586530263060381,
              48.68345292017112
            ],
            [
              -1.3552632207013553,
              48.68358188352054
            ],
            [
              -1.3553469377133462,
              48.68454705597154
            ],
            [
              -1.3587368081904463,
              48.68441809015564
            ],
            [
              -1.3586530263060381,
              48.68345292017112
            ]
          ]
        ]
      },
      "properties": {
        "kind": "operation_boundary",
        "layer": "LIMITE_OPERATION"
      }
    },
    {
      "type": "Feature",
      "id": "road-34",
      "geometry": {
        "type": "Polygon",
        "coordinates": [
          [
            [
              -1.358691020017723,
              48.6838906135528
            ],
            [
              -1.3553011849944598,
              48.684019578020745
            ],
            [
              -1.3553089726234817,
              48.684109361504554
            ],
            [
              -1.3586988136813885,
              48.683980396807186
            ],
            [
              -1.358691020017723,
              48.6838906135528
            ]
          ]
        ]
      },
      "properties": {
        "kind": "road",
        "layer": "VOIRIE"
      }
    },
    {
      "type": "Feature",
      "id": "lot-35",
      "geometry": {
        "type": "Polygon",
        "coordinates": [
          [
            [
              -1.35863101703071,
              48.68398297708337
            ],
            [
              -1.358305593010571,
              48.683995361850975
            ],
            [
              -1.3583274134568954,
              48.68424675503161
            ],
            [
              -1.3586528390991461,
              48.6842343702023
            ],
            [
              -1.35863101703071,
              48.68398297708337
            ]
          ]
        ]
      },
      "properties": {
        "kind": "lot",
        "layer": "LOTS",
        "number": "01",
        "area_m2": 672.0
      }
    },
    {
      "type": "Feature",
      "id": "lot-37",
      "geometry": {
        "type": "Polygon",
        "coordinates": [
          [
            [
              -1.358305593010571,
              48.683995361850975
            ],
            [
              -1.357980168830085,
              48.68400774569489
            ],
            [
              -1.3580033513380527,
              48.68427485101454
            ],
            [
              -1.358328777242037,
              48.68426246710509
            ],
            [
              -1.358305593010571,
              48.683995361850975
            ]
          ]
        ]
      },
      "properties": {
        "kind": "lot",
        "layer": "LOTS",
        "number": "02",
        "area_m2": 714.0
      }
    },
    {
      "type": "Feature",
      "id": "lot-39",
      "geometry": {
        "type": "Polygon",
        "coordinates": [
          [
            [
              -1.357980168830085,
              48.68400774569489
            ],
            [
              -1.3576547444892624,
              48.6840201286151
            ],
            [
              -1.357679288856959,
              48.684302946081466
            ],
            [
              -1.3580047150226648,
              48.68429056309186
            ],
            [
              -1.357980168830085,
              48.68400774569489
            ]
          ]
        ]
      },
      "properties": {
        "kind": "lot",
        "layer": "LOTS",
        "number": "03",
        "area_m2": 756.0
      }
    },
    {
      "type": "Feature",
      "id": "lot-3B",
      "geometry": {
        "type": "Polygon",
        "coordinates": [
          [
            [
              -1.3576547444892624,
              48.6840201286151
            ],
            [
              -1.3573293199881142,
              48.684032510611615
            ],
            [
              -1.3573552260136241,
              48.68433104023235
            ],
            [
              -1.3576806524410403,
              48.68431865816259
            ],
            [
              -1.3576547444892624,
              48.6840201286151
            ]
          ]
        ]
      },
      "properties": {
        "kind": "lot",
        "layer": "LOTS",
        "number": "04",
        "area_m2": 798.0
      }
    },
    {
      "type": "Feature",
      "id": "lot-3D",
      "geometry": {
        "type": "Polygon",
        "coordinates": [
          [
            [
              -1.3573293199881142,
              48.684032510611615
            ],
            [
              -1.3570038953266543,
              48.68404489168441
            ],
            [
              -1.35703116280806,
              48.68435913346718
            ],
            [
              -1.357356589497175,
              48.684346752317296
            ],
            [
              -1.3573293199881142,
              48.684032510611615
            ]
          ]
        ]
      },
      "properties": {
        "kind": "lot",
        "layer": "LOTS",
        "number": "05",
        "area_m2": 840.0
      }
    },
    {
      "type": "Feature",
      "id": "lot-3F",
      "geometry": {
        "type": "Polygon",
        "coordinates": [
          [
            [
              -1.3570038953266543,
              48.68404489168441
            ],
            [
              -1.3566784705048938,
              48.68405727183352
            ],
            [
              -1.3567070992402765,
              48.68438722578599
            ],
            [
              -1.3570325261910792,
              48.68437484555595
            ],
            [
              -1.3570038953266543,
              48.68404489168441
            ]
          ]
        ]
      },
      "properties": {
        "kind": "lot",
        "layer": "LOTS",
        "number": "06",
        "area_m2": 882.0
      }
    },
    {
      "type": "Feature",
      "id": "lot-41",
      "geometry": {
        "type": "Polygon",
        "coordinates": [
          [
            [
              -1.3566784705048938,
              48.68405727183352
            ],
            [
              -1.3563530455228434,
              48.684069651058905
            ],
            [
              -1.3563830353102861,
              48.68441531718876
            ],
            [
              -1.3567084625227648,
              48.68440293787858
            ],
            [
              -1.3566784705048938,
              48.68405727183352
            ]
          ]
        ]
      },
      "properties": {
        "kind": "lot",
        "layer": "LOTS",
        "number": "07",
        "area_m2": 924.0
      }
    },
    {
      "type": "Feature",
      "id": "lot-43",
      "geometry": {
        "type": "Polygon",
        "coordinates": [
          [
            [
              -1.3563530455228434,
              48.684069651058905
            ],
            [
              -1.3560276203805164,
              48.684082029360596
            ],
            [
              -1.3560589710180997,
              48.684443407675495
            ],
            [
              -1.3563843984922426,
              48.684431029285165
            ],
            [
              -1.3563530455228434,
              48.684069651058905
            ]
          ]
        ]
      },
      "properties": {
        "kind": "lot",
        "layer": "LOTS",
        "number": "08",
        "area_m2": 966.0
      }
    },
    {
      "type": "Feature",
      "id": "lot-45",
      "geometry": {
        "type": "Polygon",
        "coordinates": [
          [
            [
              -1.3560276203805164,
              48.684082029360596
            ],
            [
              -1.3557021950779242,
              48.68409440673857
            ],
            [
              -1.3557349063637292,
              48.684471497246186
            ],
            [
              -1.3560603340995243,
              48.68445911977572
            ],
            [
              -1.3560276203805164,
              48.684082029360596
            ]
          ]
        ]
      },
      "properties": {
        "kind": "lot",
        "layer": "LOTS",
        "number": "09",
        "area_m2": 1008.0
      }
    },
    {
      "type": "Feature",
      "id": "lot-47",
      "geometry": {
        "type": "Polygon",
        "coordinates": [
          [
            [
              -1.3557021950779242,
              48.68409440673857
            ],
            [
              -1.3553767696150774,
              48.684106783192846
            ],
            [
              -1.355410841347184,
              48.684499585900824
            ],
            [
              -1.355736269344621,
              48.68448720935021
            ],
            [
              -1.3557021950779242,
              48.68409440673857
            ]
          ]
        ]
      },
      "properties": {
        "kind": "lot",
        "layer": "LOTS",
        "number": "10",
        "area_m2": 1050.0
      }
    },
    {
      "type": "Feature",
      "id": "lot-49",
      "geometry": {
        "type": "Polygon",
        "coordinates": [
          [
            [
              -1.358594582456465,
              48.68356324033774
            ],
            [
              -1.358269161144638,
              48.68357562500234
            ],
            [
              -1.35829780004692,
              48.68390557856998
            ],
            [
              -1.358623223487737,
              48.6838931938244
            ],
            [
              -1.358594582456465,
              48.68356324033774
            ]
          ]
        ]
      },
      "properties": {
        "kind": "lot",
        "layer": "LOTS",
        "number": "11",
        "area_m2": 882.0
      }
    },
    {
      "type": "Feature",
      "id": "lot-4B",
      "geometry": {
        "type": "Polygon",
        "coordinates": [
          [
            [
              -1.3582677973967647,
              48.683559912927294
            ],
            [
              -1.3579423760259743,
              48.68357229666435
            ],
            [
              -1.3579723764457567,
              48.683917962391874
            ],
            [
              -1.35829780004692,
              48.68390557856998
            ],
            [
              -1.3582677973967647,
              48.683559912927294
            ]
          ]
        ]
      },
      "properties": {
        "kind": "lot",
        "layer": "LOTS",
        "number": "12",
        "area_m2": 924.0
      }
    },
    {
      "type": "Feature",
      "id": "lot-4D",
      "geometry": {
        "type": "Polygon",
        "coordinates": [
          [
            [
              -1.3579410123803335,
              48.68355658458543
            ],
            [
              -1.3576155909505907,
              48.68356896739494
            ],
            [
              -1.3576469526842572,
              48.68393034529005
            ],
            [
              -1.3579723764457567,
              48.683917962391874
            ],
            [
              -1.3579410123803335,
              48.68355658458543
            ]
          ]
        ]
      },
      "properties": {
        "kind": "lot",
        "layer": "LOTS",
        "number": "13",
        "area_m2": 966.0
      }
    },
    {
      "type": "Feature",
      "id": "lot-4F",
      "geometry": {
        "type": "Polygon",
        "coordinates": [
          [
            [
              -1.3576142274071819,
              48.68355325531212
            ],
            [
              -1.3572888059184993,
              48.68356563719408
            ],
            [
              -1.3573215287624343,
              48.68394272726452
            ],
            [
              -1.3576469526842572,
              48.68393034529005
            ],
            [
              -1.3576142274071819,
              48.68355325531212
            ]
          ]
        ]
      },
      "properties": {
        "kind": "lot",
        "layer": "LOTS",
        "number": "14",
        "area_m2": 1008.0
      }
    },
    {
      "type": "Feature",
      "id": "lot-51",
      "geometry": {
        "type": "Polygon",
        "coordinates": [
          [
            [
              -1.357287442477323,
              48.683549925107364
            ],
            [
              -1.3569620209297129,
              48.68356230606177
            ],
            [
              -1.3569961046802999,
              48.683955108315295
            ],
            [
              -1.3573215287624343,
              48.68394272726452
            ],
            [
              -1.357287442477323,
              48.683549925107364
            ]
          ]
        ]
      },
      "properties": {
        "kind": "lot",
        "layer": "LOTS",
        "number": "15",
        "area_m2": 1050.0
      }
    },
    {
      "type": "Feature",
      "id": "lot-53",
      "geometry": {
        "type": "Polygon",
        "coordinates": [
          [
            [
              -1.3569742910185605,
              48.683703714875605
            ],
            [
              -1.3566488683982278,
              48.683716094941
            ],
            [
              -1.3566706804378652,
              48.68396748844237
            ],
            [
              -1.3569961046802999,
              48.683955108315295
            ],
            [
              -1.3569742910185605,
              48.683703714875605
            ]
          ]
        ]
      },
      "properties": {
        "kind": "lot",
        "layer": "LOTS",
        "number": "16",
        "area_m2": 672.0
      }
    },
    {
      "type": "Feature",
      "id": "lot-55",
      "geometry": {
        "type": "Polygon",
        "coordinates": [
          [
            [
              -1.3566475051529945,
              48.683700382846865
            ],
            [
              -1.3563220824737563,
              48.68371276198471
            ],
            [
              -1.3563452560351419,
              48.683979867645746
            ],
            [
              -1.3566706804378652,
              48.68396748844237
            ],
            [
              -1.3566475051529945,
              48.683700382846865
            ]
          ]
        ]
      },
      "properties": {
        "kind": "lot",
        "layer": "LOTS",
        "number": "17",
        "area_m2": 714.0
      }
    },
    {
      "type": "Feature",
      "id": "lot-57",
      "geometry": {
        "type": "Polygon",
        "coordinates": [
          [
            [
              -1.3563207193307563,
              48.68369704988668
            ],
            [
              -1.355995296592627,
              48.683709428096996
            ],
            [
              -1.3560198314721426,
              48.6839922459254
            ],
            [
              -1.3563452560351419,
              48.683979867645746
            ],
            [
              -1.3563207193307563,
              48.68369704988668
            ]
          ]
        ]
      },
      "properties": {
        "kind": "lot",
        "layer": "LOTS",
        "number": "18",
        "area_m2": 756.0
      }
    },
    {
      "type": "Feature",
      "id": "lot-59",
      "geometry": {
        "type": "Polygon",
        "coordinates": [
          [
            [
              -1.3559939335518594,
              48.68369371599507
            ],
            [
              -1.3556685107548494,
              48.68370609327781
            ],
            [
              -1.3556944067488788,
              48.68400462328137
            ],
            [
              -1.3560198314721426,
              48.6839922459254
            ],
            [
              -1.3559939335518594,
              48.68369371599507
            ]
          ]
        ]
      },
      "properties": {
        "kind": "lot",
        "layer": "LOTS",
        "number": "19",
        "area_m2": 798.0
      }
    },
    {
      "type": "Feature",
      "id": "lot-5B",
      "geometry": {
        "type": "Polygon",
        "coordinates": [
          [
            [
              -1.3556671478163151,
              48.683690381172
            ],
            [
              -1.3553417249604365,
              48.68370275752718
            ],
            [
              -1.355368981865363,
              48.68401699971361
            ],
            [
              -1.3556944067488788,
              48.68400462328137
            ],
            [
              -1.3556671478163151,
              48.683690381172
            ]
          ]
        ]
      },
      "properties": {
        "kind": "lot",
        "layer": "LOTS",
        "number": "20",
        "area_m2": 840.0
      }
    }
  ],
  "metadata": {
    "source_crs": "EPSG:3949",
    "area_unit": "m2"
  }
}
